ALICE                   
1 39467U 13072F   26068.66905005  .00012311  00000+0  62398-3 0  9993
2 39467 120.4625 282.3278 0159202 246.5562 111.8695 15.07155655100262
STARLINK-30358          
1 57879U 23144R   26067.98805295 -.00003016  00000+0 -10013-3 0  9996
2 57879  43.0019 288.8588 0001714 277.1057  82.9600 15.27573323137536
